STARLINK-31706          
1 59437U 24065S   26068.82458981  .00002224  00000+0  87188-4 0  9997
2 59437  53.1602 282.9322 0001146 104.9711 255.1417 15.30203305108927
KUIPER-00175            
1 67135U 25301C   26068.97960463  .00019968  00000+0  66732-3 0  9998
2 67135  51.8781  63.6978 0002279  50.5695 309.5490 15.30996371 13854
